#aV2011  7 20  0  0   .00000000      96 DD+AD WGS84 FIT  NGA
## 1645 259200.00000000   900.00000000 55762  .0000000000000
+   31     2  3  4  5  6  7  8  9 10 11 12 13 14 15 16 17 18
+         19 20 21 22 23 24 25 26 27 28 29 30 31 32  0  0  0
+          0  0  0  0  0  0  0  0  0  0  0  0  0  0  0  0  0
+          0  0  0  0  0  0  0  0  0  0  0  0  0  0  0  0  0
+          0  0  0  0  0  0  0  0  0  0  0  0  0  0  0  0  0
++         0  0  0  0  0  0  0  0  0  0  0  0  0  0  0  0  0
++         0  0  0  0  0  0  0  0  0  0  0  0  0  0  0  0  0
++         0  0  0  0  0  0  0  0  0  0  0  0  0  0  0  0  0
++         0  0  0  0  0  0  0  0  0  0  0  0  0  0  0  0  0
++         0  0  0  0  0  0  0  0  0  0  0  0  0  0  0  0  0
%c cc cc ccc ccc cccc cccc cccc cccc ccccc ccccc ccccc ccccc
%c cc cc ccc ccc cccc cccc cccc cccc ccccc ccccc ccccc ccccc
%f  0.0000000  0.000000000  0.00000000000  0.000000000000000
%f  0.0000000  0.000000000  0.00000000000  0.000000000000000
%i    0    0    0    0      0      0      0      0         0
%i    0    0    0    0      0      0      0      0         0
/*      NGA, ST. LOUIS,MO.                                  
/*   EPHEMERIS COMPUTED FROM  3 DAYS OF DATA                
/* CCCCCCCCCCCCCCCCCCCCCCCCCCCCCCCCCCCCCCCCCCCCCCCCCCCCCCCCC
/* CCCCCCCCCCCCCCCCCCCCCCCCCCCCCCCCCCCCCCCCCCCCCCCCCCCCCCCCC
*  2011  7 20 12 45   .00000000                                                 
P  2  14085.123606  22826.520482    797.264487    347.479774                    
V  2  -3094.671964    897.375647  30916.981875       .017972                    
P  3 -13825.944175 -12469.507641 -19478.295466    744.196785                    
V  3  23308.094355  -5209.300405 -13196.568659       .049013                    
P  4   2696.806722  22607.334970  13176.907209    177.559262                    
V  4 -11756.456426 -13022.580328  24697.299983       .108856                    
P  5   6414.931484  17091.724745 -19266.812213   -191.998804                    
V  5 -12758.290540  20963.138930  14462.422219      -.054908                    
P  6  -8880.334931 -14305.917967 -20438.725467    -52.903116                    
V  6  26145.875341  -3248.242874  -8780.338497      -.853960                    
P  7 -12248.486930   8530.567015 -21960.697891     18.628049                    
V  7 -14671.078579 -23678.750056  -1236.062993       .014726                    
P  8  -5958.951534  16459.664088 -19754.414875      8.557607                    
V  8 -12414.572486 -22012.422566 -15117.757179       .001484                    
P  9  18772.479219  10820.950070  14794.573345     93.929197                    
V  9   9310.277414  17491.069668 -23738.418672       .025339                    
P 10  -7384.058331  24227.025882  -7540.601776     -7.366439                    
V 10  -7459.288633   6599.440845  29719.530655      -.012580                    
P 11 -22507.849394  -9875.483357  10148.761730   -169.696323                    
V 11  -6857.621794 -12282.487158 -25955.571542      -.033532                    
P 12  16703.682155  -1395.636344  20571.512396     10.375167                    
V 12 -11886.390161  23249.015808  11405.199545       .025250                    
P 13 -24477.981486   4928.212320  -9302.038561    260.262474                    
V 13 -11459.920254  -2200.652809  29368.546333      -.017613                    
P 14   8531.071755 -13880.321803  21107.977694    162.612358                    
V 14  26372.601632   1332.208315 -10003.093500       .020580                    
P 15  24618.920902   5029.343965  -8854.361667   -114.948492                    
V 15 -11056.966171   3363.793640 -28643.052984       .020042                    
P 16  -5920.913121 -16502.543958 -19842.098747   -186.604716                    
V 16  13669.017897 -21291.730788  13913.795572      -.023901                    
P 17  -7385.554495  14656.718691  20979.998696    181.852830                    
V 17 -26363.010371   -776.132867  -9019.225233      -.011530                    
P 18  16578.123581 -19106.066434  -7103.484734    148.135971                    
V 18  -1239.644076  10267.482698 -29538.887853       .019033                    
P 19 -22644.902337  -8915.510338 -11071.993050   -164.053252                    
V 19  14011.568262  -1494.982317 -27127.437319      -.041000                    
P 20 -17821.555661   4413.885386  19029.231748     50.878557                    
V 20   9168.387702 -22876.658454  13849.815409       .003603                    
P 21  11119.579183 -11406.905408 -20762.013735   -159.119174                    
V 21  15146.688494  23027.097041  -5052.463614      -.025658                    
P 22   9546.794610 -24304.274238   4693.815610    146.095982                    
V 22   6114.475120  -3218.909325 -30364.092550      -.002602                    
P 23 -26718.290874   -400.149331   1436.668831    290.458644                    
V 23   1739.082846  -2441.436128  31522.714714      -.028723                    
P 24 -18610.885257  -7728.580165  17501.298749    408.215279                    
V 24  -9143.474489 -20135.615281 -18374.174279       .032042                    
P 25  17919.795089 -13941.133891  13733.540679      9.962960                    
V 25  -6140.276031  16510.431696  24750.520360       .018741                    
P 26  15831.780422  12597.630296 -18008.326884    -96.886583                    
V 26 -21491.556355   -146.240670 -19271.787056      -.121032                    
P 27  19451.512184  14871.149977  11367.167109    286.515969                    
V 27   6341.148229  11779.574148 -27532.744155       .037183                    
P 28 -12214.706024  23380.365128   1985.642035     53.278669                    
V 28  -3163.136080    345.696660 -32111.308600       .027385                    
P 29  24809.006849  -5268.528270  -7738.429383    224.685417                    
V 29   9922.000696   2694.356652  29737.817526       .030128                    
P 30    721.367458 -23145.015122 -13411.854071     25.815732                    
V 30   8984.791630 -13827.433424  25151.554068       .051026                    
P 31  -5070.921088 -23325.987927  11614.007879    113.802104                    
V 31   9228.979593  11345.279443  27485.276764       .058077                    
P 32 -14654.155176  -5623.784524  21661.362362   -295.134972                    
V 32  14223.654592 -22874.167369   4149.430004      -.070786                    
EOF
